OBJECT_NAME,OBJECT_ID,EPOCH,MEAN_MOTION,ECCENTRICITY,INCLINATION,RA_OF_ASC_NODE,ARG_OF_PERICENTER,MEAN_ANOMALY,EPHEMERIS_TYPE,CLASSIFICATION_TYPE,NORAD_CAT_ID,ELEMENT_SET_NO,REV_AT_EPOCH,BSTAR,MEAN_MOTION_DOT,MEAN_MOTION_DDOT
SIRION PATHFINDER-2,2018-099B,2026-06-11T00:53:43.368000,15.14493949,.0007655,97.4258,211.2409,330.3363,29.7434,0,U,43759,999,41169,.21986016E-3,.3984E-4,0
CORVUS BC4,2018-099K,2026-06-11T02:26:27.181536,15.12446755,.00089483,97.4073,205.2601,33.3358,326.8435,0,U,43767,999,41148,.20200196E-3,.3451E-4,0
M2 PATHFINDER,2020-037E,2026-06-11T06:16:10.546752,15.04651902,.00119489,97.8158,353.4268,165.2840,194.8735,0,U,45727,999,32460,.14294856E-3,.1948E-4,0
NETSAT-4,2020-068U,2026-06-10T23:12:33.485472,15.43659273,.00046368,97.8605,169.7086,5.1874,354.9419,0,U,46504,999,31481,.36963665E-3,.16579E-3,0
NETSAT-3,2020-068V,2026-06-11T07:01:46.377696,15.42471777,.0005062,97.8655,168.2845,22.8952,337.2519,0,U,46505,999,31477,.35671618E-3,.15368E-3,0
NETSAT-1,2020-068W,2026-06-10T22:34:46.969824,15.34496284,.00057596,97.8746,162.3092,50.3881,309.7868,0,U,46506,999,31434,.36306583E-3,.12056E-3,0
NETSAT-2,2020-068X,2026-06-11T06:35:18.744864,15.45743313,.00041983,97.8620,169.9134,43.2285,316.9291,0,U,46507,999,31482,.36601021E-3,.17621E-3,0
GREENCUBE (IO-117),2022-080E,2026-06-01T11:09:37.753056,6.42583280,.00088692,70.1435,303.7143,293.3663,66.6064,0,U,53109,999,9105,0,-.3E-7,0
SITRO-AIS 5 (KATYS),2023-091L,2026-06-11T05:55:35.097600,15.29318150,.0012771,97.5068,226.0899,121.7384,238.5102,0,U,57176,999,16343,.37010252E-3,.10476E-3,0
SITRO-AIS 6 (CHIRKIN),2023-091AC,2026-06-11T05:05:35.902176,15.25818808,.00130577,97.5075,225.2057,124.8775,235.3693,0,U,57192,999,16337,.32427735E-3,.824E-4,0
SITRO-AIS 8 (ANOKHIN),2023-091AD,2026-06-11T06:34:59.211552,15.31971673,.00118628,97.5064,227.6825,118.1556,242.0886,0,U,57193,999,16354,.40940745E-3,.12592E-3,0
SITRO-AIS 7 (FARTUSHNIY),2023-091AE,2026-06-11T05:08:22.831296,15.25508577,.00128686,97.5073,225.0356,125.8357,234.4078,0,U,57194,999,16336,.32176529E-3,.8098E-4,0
SITRO-AIS 10 (BURDAEV),2023-091AK,2026-06-11T06:22:24.425472,15.38382847,.00078423,97.5087,232.6668,97.7802,262.4334,0,U,57199,999,16385,.45168607E-3,.17044E-3,0
SITRO-AIS 9 (SHCHUKIN),2023-091AM,2026-06-11T05:24:02.057184,15.37899887,.00080967,97.5086,232.3600,98.0046,262.2117,0,U,57201,999,16383,.43365823E-3,.16105E-3,0
SITRO-AIS 12 (SMIRENNIY),2023-091AQ,2026-06-11T06:45:49.662720,15.38191522,.00076608,97.5099,232.8815,92.9288,267.2833,0,U,57204,999,16386,.44563083E-3,.16709E-3,0
SITRO-AIS 11 (SHEFFER),2023-091AU,2026-06-11T05:33:50.042880,15.38611279,.00075575,97.5097,233.0732,92.9153,267.2957,0,U,57208,999,16387,.43974741E-3,.16714E-3,0
SITRO-AIS 25,2024-039R,2026-06-11T06:42:06.380064,14.93483359,.0144198,95.3914,231.0325,349.5982,10.2267,0,U,59066,999,12384,.21701842E-3,.2766E-4,0
SITRO-AIS 26,2024-039S,2026-06-11T06:42:55.422432,14.93280060,.01445593,95.3915,230.9318,350.1721,9.6682,0,U,59067,999,12383,.20619978E-3,.2614E-4,0
SITRO-AIS 27,2024-039T,2026-06-11T06:02:27.622176,14.93696253,.01435717,95.3914,231.1815,348.8342,10.9707,0,U,59068,999,12385,.2102233E-3,.2689E-4,0
SITRO-AIS 28,2024-039U,2026-06-11T07:06:37.755648,14.93731699,.0143498,95.3918,231.2590,348.5582,11.2392,0,U,59071,999,12386,.16722829E-3,.2133E-4,0
GRBBETA,2024-128C,2026-06-10T21:57:34.354080,15.06598569,.0041491,61.9897,238.2715,133.2900,227.1666,0,U,60237,999,10532,.22492969E-3,.3192E-4,0
OOV-CUBE (TUBSAT-30),2024-128F,2026-06-10T14:25:38.273088,15.02746418,.00454437,61.9950,248.5377,132.2861,228.2097,0,U,60240,999,10512,.16003491E-3,.1981E-4,0
ROBUSTA-3A (MEDITERRANEE),2024-128J,2026-06-10T12:28:47.186112,15.11597596,.00420788,61.9859,231.8200,126.8629,233.6336,0,U,60243,999,10541,.35004805E-3,.5875E-4,0
LASARSAT,2024-247Q,2026-06-09T19:18:52.108128,15.45910909,.0008391,44.9750,303.6854,290.3514,69.6474,0,U,62391,999,8217,.71316E-3,.35312E-3,0
CROCUBE,2024-247T,2026-06-11T05:33:08.233920,15.47837758,.00082777,44.9723,293.1031,301.7247,58.2836,0,U,62394,999,8242,.63006181E-3,.33313E-3,0
FORESAIL-1 PRIME,2025-276DS,2026-06-10T17:41:26.431872,15.18643023,.00038239,97.4203,235.1262,116.6932,243.4694,0,U,66778,999,2942,.21543773E-3,.4395E-4,0
KNACKSAT-2,1998-067XZ,2026-06-11T00:10:42.393504,15.59412992,.00099437,51.6304,325.5501,187.9343,172.1494,0,U,67683,999,1931,.5674825E-3,.45581E-3,0
