SIRION PATHFINDER-2     
1 43759U 18099B   26162.03730750  .00003984  00000+0  21986-3 0  9999
2 43759  97.4258 211.2409 0007655 330.3363  29.7434 15.14493949411697
CORVUS BC4              
1 43767U 18099K   26162.10170349  .00003451  00000+0  20200-3 0  9995
2 43767  97.4073 205.2601 0008948  33.3358 326.8435 15.12446755411488
M2 PATHFINDER           
1 45727U 20037E   26162.26123318  .00001948  00000+0  14295-3 0  9995
2 45727  97.8158 353.4268 0011948 165.2840 194.8735 15.04651902324600
NETSAT-4                
1 46504U 20068U   26161.96705423  .00016579  00000+0  36964-3 0  9995
2 46504  97.8605 169.7086 0004636   5.1874 354.9419 15.43659273314814
NETSAT-3                
1 46505U 20068V   26162.29289789  .00015368  00000+0  35672-3 0  9995
2 46505  97.8655 168.2845 0005062  22.8952 337.2519 15.42471777314774
NETSAT-1                
1 46506U 20068W   26161.94082141  .00012056  00000+0  36307-3 0  9997
2 46506  97.8746 162.3092 0005759  50.3881 309.7868 15.34496284314340
NETSAT-2                
1 46507U 20068X   26162.27452251  .00017621  00000+0  36601-3 0  9998
2 46507  97.8620 169.9134 0004198  43.2285 316.9291 15.45743313314820
GREENCUBE (IO-117)      
1 53109U 22080E   26152.46502029 -.00000003  00000+0  00000+0 0  9996
2 53109  70.1435 303.7143 0008869 293.3663  66.6064  6.42583280 91055
SITRO-AIS 5 (KATYS)     
1 57176U 23091L   26162.24693400  .00010476  00000+0  37010-3 0  9997
2 57176  97.5068 226.0899 0012771 121.7384 238.5102 15.29318150163436
SITRO-AIS 6 (CHIRKIN)   
1 57192U 23091AC  26162.21222109  .00008240  00000+0  32428-3 0  9990
2 57192  97.5075 225.2057 0013057 124.8775 235.3693 15.25818808163379
SITRO-AIS 8 (ANOKHIN)   
1 57193U 23091AD  26162.27429643  .00012592  00000+0  40941-3 0  9993
2 57193  97.5064 227.6825 0011862 118.1556 242.0886 15.31971673163547
SITRO-AIS 7 (FARTUSHNIY)
1 57194U 23091AE  26162.21415314  .00008098  00000+0  32177-3 0  9996
2 57194  97.5073 225.0356 0012868 125.8357 234.4078 15.25508577163360
SITRO-AIS 10 (BURDAEV)  
1 57199U 23091AK  26162.26556048  .00017044  00000+0  45169-3 0  9992
2 57199  97.5087 232.6668 0007842  97.7802 262.4334 15.38382847163852
SITRO-AIS 9 (SHCHUKIN)  
1 57201U 23091AM  26162.22502381  .00016105  00000+0  43366-3 0  9997
2 57201  97.5086 232.3600 0008096  98.0046 262.2117 15.37899887163835
SITRO-AIS 12 (SMIRENNIY)
1 57204U 23091AQ  26162.28182480  .00016709  00000+0  44563-3 0  9990
2 57204  97.5099 232.8815 0007660  92.9288 267.2833 15.38191522163867
SITRO-AIS 11 (SHEFFER)  
1 57208U 23091AU  26162.23182920  .00016714  00000+0  43975-3 0  9990
2 57208  97.5097 233.0732 0007557  92.9153 267.2957 15.38611279163870
SITRO-AIS 25            
1 59066U 24039R   26162.27924051  .00002766  00000+0  21702-3 0  9996
2 59066  95.3914 231.0325 0144198 349.5982  10.2267 14.93483359123847
SITRO-AIS 26            
1 59067U 24039S   26162.27980813  .00002614  00000+0  20620-3 0  9995
2 59067  95.3915 230.9318 0144559 350.1721   9.6682 14.93280060123835
SITRO-AIS 27            
1 59068U 24039T   26162.25170859  .00002689  00000+0  21022-3 0  9994
2 59068  95.3914 231.1815 0143571 348.8342  10.9707 14.93696253123856
SITRO-AIS 28            
1 59071U 24039U   26162.29627032  .00002133  00000+0  16723-3 0  9998
2 59071  95.3918 231.2590 0143498 348.5582  11.2392 14.93731699123865
GRBBETA                 
1 60237U 24128C   26161.91498095  .00003192  00000+0  22493-3 0  9993
2 60237  61.9897 238.2715 0041491 133.2900 227.1666 15.06598569105320
OOV-CUBE (TUBSAT-30)    
1 60240U 24128F   26161.60113742  .00001981  00000+0  16003-3 0  9990
2 60240  61.9950 248.5377 0045443 132.2861 228.2097 15.02746418105120
ROBUSTA-3A (MEDITERRAN*)
1 60243U 24128J   26161.51999058  .00005875  00000+0  35005-3 0  9994
2 60243  61.9859 231.8200 0042078 126.8629 233.6336 15.11597596105412
LASARSAT                
1 62391U 24247Q   26160.80476977  .00035312  00000+0  71316-3 0  9997
2 62391  44.9750 303.6854 0008391 290.3514  69.6474 15.45910909 82173
CROCUBE                 
1 62394U 24247T   26162.23134530  .00033313  00000+0  63006-3 0  9991
2 62394  44.9723 293.1031 0008277 301.7247  58.2836 15.47837758 82425
FORESAIL-1 PRIME        
1 66778U 25276DS  26161.73711148  .00004395  00000+0  21544-3 0  9993
2 66778  97.4203 235.1262 0003823 116.6932 243.4694 15.18643023 29428
KNACKSAT-2              
1 67683U 98067XZ  26162.00743511  .00045581  00000+0  56748-3 0  9993
2 67683  51.6304 325.5501 0009943 187.9343 172.1494 15.59412992 19311
